[{"OBJECT_NAME":"R2","OBJECT_ID":"2020-081J","EPOCH":"2026-03-09T01:19:00.333408","MEAN_MOTION":15.23806181,"ECCENTRICITY":0.0005079,"INCLINATION":36.8981,"RA_OF_ASC_NODE":317.5127,"ARG_OF_PERICENTER":163.7384,"MEAN_ANOMALY":196.3528,"EPHEMERIS_TYPE":0,"CLASSIFICATION_TYPE":"U","NORAD_CAT_ID":46913,"ELEMENT_SET_NO":999,"REV_AT_EPOCH":29669,"BSTAR":0.000513162,"MEAN_MOTION_DOT":0.00012575,"MEAN_MOTION_DDOT":0},{"OBJECT_NAME":"TIANMU-1 13","OBJECT_ID":"2023-205C","EPOCH":"2026-03-10T00:00:50.036832","MEAN_MOTION":15.25862583,"ECCENTRICITY":0.00064025,"INCLINATION":97.3565,"RA_OF_ASC_NODE":92.1641,"ARG_OF_PERICENTER":331.9635,"MEAN_ANOMALY":28.1258,"EPHEMERIS_TYPE":0,"CLASSIFICATION_TYPE":"U","NORAD_CAT_ID":58647,"ELEMENT_SET_NO":999,"REV_AT_EPOCH":12237,"BSTAR":0.00032666188,"MEAN_MOTION_DOT":8.299e-5,"MEAN_MOTION_DDOT":0}]
